OBJECT_NAME,OBJECT_ID,EPOCH,MEAN_MOTION,ECCENTRICITY,INCLINATION,RA_OF_ASC_NODE,ARG_OF_PERICENTER,MEAN_ANOMALY,EPHEMERIS_TYPE,CLASSIFICATION_TYPE,NORAD_CAT_ID,ELEMENT_SET_NO,REV_AT_EPOCH,BSTAR,MEAN_MOTION_DOT,MEAN_MOTION_DDOT
QIANFAN-14 OBJECT T,2026-155T,2026-07-14T04:05:48.931008,14.26768552,.003006,89.0067,61.0631,227.4422,132.4234,0,U,69865,999,123,.1025E-3,.264E-5,0
QIANFAN-14 OBJECT U,2026-155U,2026-07-14T04:05:44.526336,14.26776663,.003005,89.0068,61.0631,227.3965,132.4694,0,U,69866,999,122,.57019E-4,.153E-5,0
QIANFAN-14 OBJECT V,2026-155V,2026-07-14T04:05:40.723008,14.26784009,.0030017,89.0067,61.0630,227.4907,132.3751,0,U,69867,999,123,.24354E-4,.74E-6,0
CZ-8A R/B,2026-155W,2026-07-13T21:44:06.095040,14.48268501,.0105288,88.9660,61.0582,106.8821,254.3962,0,U,69868,999,120,-.28854E-4,-.96E-6,0
CHUANG XIN 26 (CX-26),2026-158A,2026-07-13T12:20:46.071168,14.25122238,.0004887,49.9860,287.5119,294.2352,65.8050,0,U,69972,999,46,-.21871415E-4,-.212E-5,0
CZ-10B DEB,2026-158B,2026-07-13T14:02:35.409120,14.24885997,.0005701,49.9846,287.2193,305.8104,54.2279,0,U,69973,999,47,.11013E-3,.99E-6,0
CZ-10B R/B,2026-158C,2026-07-13T13:30:02.623104,14.64293949,.0197945,49.9631,286.3519,194.8878,164.6170,0,U,69974,999,48,.5513E-4,.143E-5,0
